     2.11           N: GPS NAV DATA                         RINEX VERSION / TYPE
teqc  2019Feb25                         20221121 12:27:30UTCPGM / RUN BY / DATE
OSX ker:10.11.6|Core i5|gcc 4.3 -m64|OSX ker:10.10+|=+      COMMENT
    8.3819D-09  1.4901D-08 -5.9605D-08 -5.9605D-08          ION ALPHA
    8.3968D+04  1.6384D+04 -1.3107D+05 -6.5536D+04          ION BETA
   -2.793967723846D-09-7.105427357601D-15   319488     1550 DELTA-UTC: A0,A1,T,W
                                                            END OF HEADER
11 09  9 22  0  0  0.0-2.072984352708D-05-1.705302565824D-12 0.000000000000D+00
    6.200000000000D+01 4.140625000000D+01 5.950247851707D-09 2.545151399818D+00
    2.140179276466D-06 9.876504540443D-03 1.138634979725D-05 5.153708837509D+03
    1.728000000000D+05-8.568167686462D-08-2.746651434886D+00-1.564621925354D-07
    8.894847306093D-01 1.214375000000D+02 7.277387307021D-01-8.452137779750D-09
   -1.075044779930D-10 1.000000000000D+00 1.550000000000D+03 0.000000000000D+00
    2.000000000000D+00 0.000000000000D+00-1.164153218269D-08 6.200000000000D+01
    1.656180000000D+05 4.000000000000D+00
17 09  9 22  0  0  0.0 8.685747161508D-05 3.183231456205D-12 0.000000000000D+00
    3.800000000000D+01-4.012500000000D+01 4.768055751518D-09-8.299453443149D-01
   -1.985579729080D-06 4.662670427933D-03 8.350238204002D-06 5.153733644485D+03
    1.728000000000D+05 7.636845111847D-08 2.728896378516D+00 6.146728992462D-08
    9.601547583682D-01 2.170937500000D+02-2.644721933067D+00-8.058907114400D-09
   -3.635865734116D-10 1.000000000000D+00 1.550000000000D+03 0.000000000000D+00
    2.000000000000D+00 0.000000000000D+00-1.024454832077D-08 3.800000000000D+01
    1.656180000000D+05 4.000000000000D+00
32 09  9 22  0  0  0.0 1.921649090946D-04-7.162270776462D-12 0.000000000000D+00
    1.700000000000D+01 6.043750000000D+01 4.678766317969D-09-2.859037039809D+00
    3.175809979439D-06 1.327176298946D-02 2.196058630943D-06 5.153716959000D+03
    1.728000000000D+05 1.676380634308D-08-1.393531845509D+00 2.440065145493D-07
    9.620272715659D-01 3.345937500000D+02-1.115091847457D+00-8.179269270825D-09
    7.893185925733D-11 1.000000000000D+00 1.550000000000D+03 0.000000000000D+00
    2.000000000000D+00 0.000000000000D+00-3.259629011154D-09 1.700000000000D+01
    1.656180000000D+05 4.000000000000D+00
 9 09  9 22  0  0  0.0 7.881084457040D-05 2.160049916711D-12 0.000000000000D+00
    2.400000000000D+01-5.565625000000D+01 3.692653813853D-09 1.781382971763D+00
   -3.125518560410D-06 2.066977391951D-02 1.156330108643D-05 5.153632946014D+03
    1.728000000000D+05 1.844018697739D-07 5.828301220597D-01-4.582107067108D-07
    9.778789852020D-01 1.626875000000D+02 1.513675866767D+00-7.531027983259D-09
    3.017982853957D-10 1.000000000000D+00 1.550000000000D+03 0.000000000000D+00
    2.800000000000D+00 0.000000000000D+00-5.587935447693D-09 2.400000000000D+01
    1.656180000000D+05 4.000000000000D+00
14 09  9 22  0  0  0.0-4.773447290063D-05 5.115907697473D-12 0.000000000000D+00
    3.700000000000D+01-9.021875000000D+01 3.947307278335D-09-1.329024421602D+00
   -4.770234227180D-06 4.939878592268D-03 5.446374416351D-06 5.153648338318D+03
    1.728000000000D+05 2.104789018631D-07-3.905871473282D-01 9.499490261078D-08
    9.879981929019D-01 2.917500000000D+02-2.154288869864D+00-7.935687696103D-09
   -4.789485215569D-10 1.000000000000D+00 1.550000000000D+03 0.000000000000D+00
    2.000000000000D+00 0.000000000000D+00-8.847564458847D-09 3.700000000000D+01
    1.656180000000D+05 4.000000000000D+00
 4 09  9 22  0  0  0.0-2.763699740171D-04-1.739408617141D-11 0.000000000000D+00
    5.500000000000D+01 8.296875000000D+01 4.939491463932D-09 9.333190622681D-01
    4.556030035019D-06 8.774847839959D-03 1.067854464054D-05 5.153809799194D+03
    1.728000000000D+05 1.676380634308D-08-2.522442771169D+00 8.381903171539D-08
    9.402709938096D-01 1.625937500000D+02 5.163829507026D-01-8.232128615486D-09
   -1.360770967287D-10 1.000000000000D+00 1.550000000000D+03 0.000000000000D+00
    2.000000000000D+00 0.000000000000D+00-6.053596735001D-09 5.500000000000D+01
    1.656180000000D+05 4.000000000000D+00
12 09  9 22  0  0  0.0-2.154447138309D-04 5.684341886081D-12 0.000000000000D+00
    1.060000000000D+02 1.143750000000D+01 4.611977821674D-09 2.717306401256D+00
    4.637986421585D-07 3.075785934925D-03 5.602836608887D-06 5.153561946869D+03
    1.728000000000D+05 3.166496753693D-08 1.668894741673D+00 5.215406417847D-08
    9.677416212258D-01 2.715000000000D+02-5.883697758943D-01-8.056764167995D-09
    4.210889686172D-10 1.000000000000D+00 1.550000000000D+03 0.000000000000D+00
    2.000000000000D+00 0.000000000000D+00-1.164153218269D-08 1.060000000000D+02
    1.656180000000D+05 4.000000000000D+00
27 09  9 22  0  0  0.0 8.475966751575D-05 3.296918293927D-12 0.000000000000D+00
    8.700000000000D+01-3.787500000000D+01 3.838374169405D-09-1.226653021971D+00
   -1.655891537666D-06 2.135674387682D-02 1.186691224575D-05 5.153742700577D+03
    1.728000000000D+05-2.514570951462D-07 5.585346515416D-01 4.414469003677D-07
    9.759350435662D-01 1.625625000000D+02-1.544003502972D+00-7.902114869088D-09
    2.996553389905D-10 1.000000000000D+00 1.550000000000D+03 0.000000000000D+00
    2.800000000000D+00 0.000000000000D+00-4.190951585770D-09 8.700000000000D+01
    1.656180000000D+05 4.000000000000D+00
23 09  9 22  0  0  0.0 3.883372992277D-04-3.410605131648D-13 0.000000000000D+00
    3.000000000000D+01-8.596875000000D+01 4.274106605125D-09-1.979750156061D+00
   -4.548579454422D-06 6.394645897672D-03 5.679205060005D-06 5.153775262833D+03
    1.728000000000D+05-7.264316082001D-08-4.251443488772D-01-1.136213541031D-07
    9.699061621305D-01 2.744062500000D+02 2.970987311032D+00-8.109623512656D-09
   -3.450143712334D-10 1.000000000000D+00 1.550000000000D+03 0.000000000000D+00
    2.000000000000D+00 0.000000000000D+00-2.002343535423D-08 3.000000000000D+01
    1.682880000000D+05 4.000000000000D+00
30 09  9 22  0  0  0.0 1.788688823581D-04 3.183231456205D-12 0.000000000000D+00
    6.100000000000D+01 1.375000000000D+01 4.991279335390D-09 2.078495120750D-01
    5.234032869339D-07 1.191748818383D-02 6.033107638359D-06 5.153661300659D+03
    1.728000000000D+05-1.788139343262D-07 1.619224389458D+00-1.117587089539D-08
    9.528748552225D-01 2.610312500000D+02 1.456174417521D+00-8.460709565371D-09
    4.243033882249D-10 1.000000000000D+00 1.550000000000D+03 0.000000000000D+00
    2.000000000000D+00 0.000000000000D+00-7.916241884232D-09 6.100000000000D+01
    1.688580000000D+05 4.000000000000D+00
 2 09  9 22  0  0  0.0 1.743384636939D-04 3.183231456205D-12 0.000000000000D+00
    6.600000000000D+01 8.831250000000D+01 4.800557105330D-09-1.902973690264D+00
    4.490837454796D-06 9.087816462852D-03 1.149252057076D-05 5.153720436096D+03
    1.728000000000D+05-1.173466444016D-07-2.540666401662D+00-2.365559339523D-07
    9.410931084197D-01 1.482500000000D+02 2.896007813344D+00-8.110694985859D-09
   -1.428630936784D-12 1.000000000000D+00 1.550000000000D+03 0.000000000000D+00
    2.000000000000D+00 0.000000000000D+00-1.722946763039D-08 6.600000000000D+01
    1.690680000000D+05 4.000000000000D+00
13 09  9 22  0  0  0.0 3.048935905099D-04 4.547473508865D-13 0.000000000000D+00
    6.300000000000D+01-9.065625000000D+01 3.771585673111D-09-1.298831035926D+00
   -4.777684807777D-06 4.006312112324D-03 6.308779120445D-06 5.153651634216D+03
    1.728000000000D+05-7.823109626770D-08-3.703590045391D-01 6.146728992462D-08
    9.945846684893D-01 2.744062500000D+02 1.660534586171D+00-7.857112994580D-09
   -4.360895934534D-10 1.000000000000D+00 1.550000000000D+03 0.000000000000D+00
    2.000000000000D+00 0.000000000000D+00-1.117587089539D-08 6.300000000000D+01
    1.719480000000D+05 4.000000000000D+00
